{"type": "FeatureCollection", "features": [ {"type": "Feature", "properties": {"norad_id": 30369, "name": "FENGYUN 1C DEB", "group": "fengyun-1c-debris", "lat": -43.42961991594369, "lon": -2.9646953720641602, "alt_km": 908.4465778356262, "timestamp": "2025-12-17T10:52:54.629290+00:00", "meta": {"OBJECT_NAME": "FENGYUN 1C DEB", "OBJECT_ID": "1999-025ACG", "EPOCH": "2025-12-16T23:27:35.466912", "MEAN_MOTION": 14.12060558, "ECCENTRICITY": 0.0099407, "INCLINATION": 98.7213, "RA_OF_ASC_NODE": 348.2173, "ARG_OF_PERICENTER": 183.4384, "MEAN_ANOMALY": 233.83, "EPHEMERIS_TYPE": 0, "CLASSIFICATION_TYPE": "U", "NORAD_CAT_ID": 30369, "ELEMENT_SET_NO": 999, "REV_AT_EPOCH": 97306, "BSTAR": 0.00016120663, "MEAN_MOTION_DOT": 2.67e-06, "MEAN_MOTION_DDOT": 0}, "tle": {"line1": "1 30369U 99025ACG 25350.97749383  .00000267  00000+0  16121-3 0  9999", "line2": "2 30369  98.7213 348.2173 0099407 183.4384 233.8300 14.12060558973067"}}, "geometry": {"type": "Point", "coordinates": [-2.9646953720641602, -43.42961991594369]}}, {"type": "Feature", "properties": {"norad_id": 30370, "name": "FENGYUN 1C DEB", "group": "fengyun-1c-debris", "lat": 1.3044228185575846, "lon": 47.29761408804584, "alt_km": 792.0588022741222, "timestamp": "2025-12-17T10:52:54.629301+00:00", "meta": {"OBJECT_NAME": "FENGYUN 1C DEB", "OBJECT_ID": "1999-025ACH", "EPOCH": "2025-12-16T16:49:32.062656", "MEAN_MOTION": 14.19172074, "ECCENTRICITY": 0.00993445, "INCLINATION": 99.0568, "RA_OF_ASC_NODE": 46.737, "ARG_OF_PERICENTER": 305.9257, "MEAN_ANOMALY": 172.9497, "EPHEMERIS_TYPE": 0, "CLASSIFICATION_TYPE": "U", "NORAD_CAT_ID": 30370, "ELEMENT_SET_NO": 999, "REV_AT_EPOCH": 97150, "BSTAR": 0.00098846785, "MEAN_MOTION_DOT": 2.127e-05, "MEAN_MOTION_DDOT": 0}, "tle": {"line1": "1 30370U 99025ACH 25350.70106554  .00002127  00000+0  98847-3 0  9991", "line2": "2 30370  99.0568  46.7370 0099344 305.9257 172.9497 14.19172074971506"}}, "geometry": {"type": "Point", "coordinates": [47.29761408804584, 1.3044228185575846]}}, {"type": "Feature", "properties": {"norad_id": 30371, "name": "FENGYUN 1C DEB", "group": "fengyun-1c-debris", "lat": -25.15176316552706, "lon": -149.67577699564637, "alt_km": 798.5617856591161, "timestamp": "2025-12-17T10:52:54.629311+00:00", "meta": {"OBJECT_NAME": "FENGYUN 1C DEB", "OBJECT_ID": "1999-025ACJ", "EPOCH": "2025-12-16T16:02:09.801600", "MEAN_MOTION": 14.30253676, "ECCENTRICITY": 0.00068563, "INCLINATION": 98.5762, "RA_OF_ASC_NODE": 33.6136, "ARG_OF_PERICENTER": 323.3756, "MEAN_ANOMALY": 161.2067, "EPHEMERIS_TYPE": 0, "CLASSIFICATION_TYPE": "U", "NORAD_CAT_ID": 30371, "ELEMENT_SET_NO": 999, "REV_AT_EPOCH": 97959, "BSTAR": 0.00083543554, "MEAN_MOTION_DOT": 2.123e-05, "MEAN_MOTION_DDOT": 0}, "tle": {"line1": "1 30371U 99025ACJ 25350.66816900  .00002123  00000+0  83544-3 0  9994", "line2": "2 30371  98.5762  33.6136 0006856 323.3756 161.2067 14.30253676979598"}}, "geometry": {"type": "Point", "coordinates": [-149.67577699564637, -25.15176316552706]}}, {"type": "Feature", "properties": {"norad_id": 30374, "name": "FENGYUN 1C DEB", "group": "fengyun-1c-debris", "lat": 77.94287453622778, "lon": 85.4526897375061, "alt_km": 665.7456905863719, "timestamp": "2025-12-17T10:52:54.629321+00:00", "meta": {"OBJECT_NAME": "FENGYUN 1C DEB", "OBJECT_ID": "1999-025ACM", "EPOCH": "2025-12-16T15:00:43.803936", "MEAN_MOTION": 14.61337715, "ECCENTRICITY": 0.00394328, "INCLINATION": 99.2731, "RA_OF_ASC_NODE": 214.6274, "ARG_OF_PERICENTER": 156.0116, "MEAN_ANOMALY": 269.1277, "EPHEMERIS_TYPE": 0, "CLASSIFICATION_TYPE": "U", "NORAD_CAT_ID": 30374, "ELEMENT_SET_NO": 999, "REV_AT_EPOCH": 98979, "BSTAR": 0.0010415368, "MEAN_MOTION_DOT": 5.147e-05, "MEAN_MOTION_DDOT": 0}, "tle": {"line1": "1 30374U 99025ACM 25350.62550699  .00005147  00000+0  10415-2 0  9998", "line2": "2 30374  99.2731 214.6274 0039432 156.0116 269.1277 14.61337715989791"}}, "geometry": {"type": "Point", "coordinates": [85.4526897375061, 77.94287453622778]}}, {"type": "Feature", "properties": {"norad_id": 30377, "name": "FENGYUN 1C DEB", "group": "fengyun-1c-debris", "lat": -73.93113340261031, "lon": 43.734914019044254, "alt_km": 829.2418770365603, "timestamp": "2025-12-17T10:52:54.629331+00:00", "meta": {"OBJECT_NAME": "FENGYUN 1C DEB", "OBJECT_ID": "1999-025ACQ", "EPOCH": "2025-12-16T23:31:19.444224", "MEAN_MOTION": 13.99175622, "ECCENTRICITY": 0.01180472, "INCLINATION": 98.893, "RA_OF_ASC_NODE": 10.3496, "ARG_OF_PERICENTER": 254.8471, "MEAN_ANOMALY": 165.1097, "EPHEMERIS_TYPE": 0, "CLASSIFICATION_TYPE": "U", "NORAD_CAT_ID": 30377, "ELEMENT_SET_NO": 999, "REV_AT_EPOCH": 96266, "BSTAR": 0.00031513324, "MEAN_MOTION_DOT": 4.41e-06, "MEAN_MOTION_DDOT": 0}, "tle": {"line1": "1 30377U 99025ACQ 25350.98008616  .00000441  00000+0  31513-3 0  9992", "line2": "2 30377  98.8930  10.3496 0118047 254.8471 165.1097 13.99175622962667"}}, "geometry": {"type": "Point", "coordinates": [43.734914019044254, -73.93113340261031]}}, {"type": "Feature", "properties": {"norad_id": 30379, "name": "FENGYUN 1C DEB", "group": "fengyun-1c-debris", "lat": -10.483586601018455, "lon": -175.57992068562672, "alt_km": 863.5738870441355, "timestamp": "2025-12-17T10:52:54.629341+00:00", "meta": {"OBJECT_NAME": "FENGYUN 1C DEB", "OBJECT_ID": "1999-025ACS", "EPOCH": "2025-12-16T12:32:55.079808", "MEAN_MOTION": 14.08038357, "ECCENTRICITY": 0.00355255, "INCLINATION": 98.758, "RA_OF_ASC_NODE": 5.1519, "ARG_OF_PERICENTER": 268.287, "MEAN_ANOMALY": 248.3186, "EPHEMERIS_TYPE": 0, "CLASSIFICATION_TYPE": "U", "NORAD_CAT_ID": 30379, "ELEMENT_SET_NO": 999, "REV_AT_EPOCH": 96870, "BSTAR": 0.00030171859, "MEAN_MOTION_DOT": 4.73e-06, "MEAN_MOTION_DDOT": 0}, "tle": {"line1": "1 30379U 99025ACS 25350.52285972  .00000473  00000+0  30172-3 0  9991", "line2": "2 30379  98.7580   5.1519 0035525 268.2870 248.3186 14.08038357968706"}}, "geometry": {"type": "Point", "coordinates": [-175.57992068562672, -10.483586601018455]}}, {"type": "Feature", "properties": {"norad_id": 30380, "name": "FENGYUN 1C DEB", "group": "fengyun-1c-debris", "lat": -51.254478254273884, "lon": -151.923526396043, "alt_km": 619.2913247147117, "timestamp": "2025-12-17T10:52:54.629352+00:00", "meta": {"OBJECT_NAME": "FENGYUN 1C DEB", "OBJECT_ID": "1999-025ACT", "EPOCH": "2025-12-16T17:15:44.140032", "MEAN_MOTION": 14.50679911, "ECCENTRICITY": 0.01776895, "INCLINATION": 98.9144, "RA_OF_ASC_NODE": 38.5784, "ARG_OF_PERICENTER": 205.394, "MEAN_ANOMALY": 153.8442, "EPHEMERIS_TYPE": 0, "CLASSIFICATION_TYPE": "U", "NORAD_CAT_ID": 30380, "ELEMENT_SET_NO": 999, "REV_AT_EPOCH": 99623, "BSTAR": 0.00022880935, "MEAN_MOTION_DOT": 1.041e-05, "MEAN_MOTION_DDOT": 0}, "tle": {"line1": "1 30380U 99025ACT 25350.71926088  .00001041  00000+0  22881-3 0  9994", "line2": "2 30380  98.9144  38.5784 0177689 205.3940 153.8442 14.50679911996236"}}, "geometry": {"type": "Point", "coordinates": [-151.923526396043, -51.254478254273884]}}, {"type": "Feature", "properties": {"norad_id": 30381, "name": "FENGYUN 1C DEB", "group": "fengyun-1c-debris", "lat": -78.4513605817219, "lon": 75.77333467010106, "alt_km": 888.9388632975515, "timestamp": "2025-12-17T10:52:54.629362+00:00", "meta": {"OBJECT_NAME": "FENGYUN 1C DEB", "OBJECT_ID": "1999-025ACU", "EPOCH": "2025-12-10T12:43:11.568000", "MEAN_MOTION": 14.12931, "ECCENTRICITY": 0.0054669, "INCLINATION": 98.8137, "RA_OF_ASC_NODE": 19.557, "ARG_OF_PERICENTER": 82.3976, "MEAN_ANOMALY": 278.3401, "EPHEMERIS_TYPE": 0, "CLASSIFICATION_TYPE": "U", "NORAD_CAT_ID": 30381, "ELEMENT_SET_NO": 999, "REV_AT_EPOCH": 92135, "BSTAR": 0.001434, "MEAN_MOTION_DOT": 2.666e-05, "MEAN_MOTION_DDOT": 0}, "tle": {"line1": "1 30381U 99025ACU 25344.52999500  .00002666  00000+0  14340-2 0  9990", "line2": "2 30381  98.8137  19.5570 0054669  82.3976 278.3401 14.12931000921351"}}, "geometry": {"type": "Point", "coordinates": [75.77333467010106, -78.4513605817219]}}, {"type": "Feature", "properties": {"norad_id": 30382, "name": "FENGYUN 1C DEB", "group": "fengyun-1c-debris", "lat": 65.18253652317114, "lon": -131.44967644560828, "alt_km": 871.6787866847772, "timestamp": "2025-12-17T10:52:54.629372+00:00", "meta": {"OBJECT_NAME": "FENGYUN 1C DEB", "OBJECT_ID": "1999-025ACV", "EPOCH": "2025-12-16T16:22:09.575328", "MEAN_MOTION": 14.25306669, "ECCENTRICITY": 0.01545447, "INCLINATION": 98.4994, "RA_OF_ASC_NODE": 28.936, "ARG_OF_PERICENTER": 345.4602, "MEAN_ANOMALY": 130.8863, "EPHEMERIS_TYPE": 0, "CLASSIFICATION_TYPE": "U", "NORAD_CAT_ID": 30382, "ELEMENT_SET_NO": 999, "REV_AT_EPOCH": 97591, "BSTAR": 0.0007012251, "MEAN_MOTION_DOT": 1.826e-05, "MEAN_MOTION_DDOT": 0}, "tle": {"line1": "1 30382U 99025ACV 25350.68205527  .00001826  00000+0  70123-3 0  9993", "line2": "2 30382  98.4994  28.9360 0154544 345.4602 130.8863 14.25306669975918"}}, "geometry": {"type": "Point", "coordinates": [-131.44967644560828, 65.18253652317114]}}, {"type": "Feature", "properties": {"norad_id": 30385, "name": "FENGYUN 1C DEB", "group": "fengyun-1c-debris", "lat": -62.4780059442641, "lon": 30.307409267814855, "alt_km": 686.0951905602697, "timestamp": "2025-12-17T10:52:54.629382+00:00", "meta": {"OBJECT_NAME": "FENGYUN 1C DEB", "OBJECT_ID": "1999-025ACY", "EPOCH": "2025-12-16T00:26:58.212384", "MEAN_MOTION": 14.38793738, "ECCENTRICITY": 0.01246622, "INCLINATION": 99.0817, "RA_OF_ASC_NODE": 10.9126, "ARG_OF_PERICENTER": 279.858, "MEAN_ANOMALY": 148.8462, "EPHEMERIS_TYPE": 0, "CLASSIFICATION_TYPE": "U", "NORAD_CAT_ID": 30385, "ELEMENT_SET_NO": 999, "REV_AT_EPOCH": 98816, "BSTAR": 0.00028063666, "MEAN_MOTION_DOT": 8.9e-06, "MEAN_MOTION_DDOT": 0}, "tle": {"line1": "1 30385U 99025ACY 25350.01872931  .00000890  00000+0  28064-3 0  9999", "line2": "2 30385  99.0817  10.9126 0124662 279.8580 148.8462 14.38793738988162"}}, "geometry": {"type": "Point", "coordinates": [30.307409267814855, -62.4780059442641]}}]}